{"type":"FeatureCollection","features":[{"type":"Feature","geometry":{"type":"Point","coordinates":[49.8469988,40.391180399999996]},"properties":{"amenity":"restaurant","internet_access":"wlan","name":"Qosha Qala Kafe","phone":"+994507908888","website":"http://qoshaqala.az","geotype":"Point","index":87},"id":"4340817793"},{"type":"Feature","geometry":{"type":"Point","coordinates":[49.8467393,40.38971000000001]},"properties":{"addr:housenumber":"761","addr:street":"Cəyhunbəy Hacıbəyli","amenity":"restaurant","cuisine":"turkish","internet_access":"wlan","name":"İstanbul Meyhane","name:en":"Istanbul Meyhane","name:tr":"İstanbul Meyhane","opening_hours":"Mo-Su 10:00-01:00","phone":"+994554550525","geotype":"Point","index":182},"id":"4580594292"},{"type":"Feature","geometry":{"type":"Point","coordinates":[49.84270480000001,40.38982540000001]},"properties":{"addr:street":"Azadlıq prospekti","amenity":"bank","name:en":"ата банк","name:ru":"ата банк","geotype":"Point","index":150},"id":"5110144026"},{"type":"Feature","geometry":{"type":"Point","coordinates":[49.8464031,40.390594600000014]},"properties":{"addr:street":"Ceyhunbəy Hacıbəyli küçəsi","amenity":"cafe","name":"Mixek (Xurma)","geotype":"Point","index":64},"id":"5322021822"},{"type":"Feature","geometry":{"type":"Point","coordinates":[49.846332,40.39084379999997]},"properties":{"addr:city":"Bakı","addr:street":"Ceyhunbəy Hacıbəyli küç.","amenity":"cafe","name":"COFFEEMOON","name:az":"COFFEEMOON","name:en":"COFFEEMOON","name:ru":"COFFEEMOON","geotype":"Point","index":70},"id":"9749732244"},{"type":"Feature","geometry":{"type":"Point","coordinates":[49.843825800000005,40.390741899999995]},"properties":{"amenity":"restaurant","name:en":"Soloha","name:ru":"Soloha","geotype":"Point","index":106},"id":"4843511321"},{"type":"Feature","geometry":{"type":"Point","coordinates":[49.8458174,40.39083690000001]},"properties":{"addr:city":"Bakı","addr:street":"Bakıxanov küç.","amenity":"cafe","brand":"Second Cup","brand:wikidata":"Q862180","cuisine":"coffee_shop","internet_access":"wlan","name":"Second Cup","outdoor_seating":"yes","takeaway":"yes","geotype":"Point","index":69},"id":"9744012508"},{"type":"Feature","geometry":{"type":"Point","coordinates":[49.8483505,40.3914188]},"properties":{"addr:city":"Bakı","addr:street":"Bakıxanov küç.","amenity":"fast_food","cuisine":"kebab","drive_through":"yes","name":"Bir Iki Dönər","name:az":"Bir Iki Dönər","name:en":"BIR-IKI Döner Shop","website":"https://www.facebook.com/BIRIKIDONER/","geotype":"Point","index":167},"id":"9744012507"},{"type":"Feature","geometry":{"type":"Point","coordinates":[49.8494635,40.3911947]},"properties":{"amenity":"cafe","name":"Amazon kafe","geotype":"Point","index":55},"id":"4853095421"},{"type":"Feature","geometry":{"type":"Point","coordinates":[49.8447053,40.38543039999999]},"properties":{"amenity":"bank","name:en":"Rabite bank","geotype":"Point","index":197},"id":"6285617091"},{"type":"Feature","geometry":{"type":"Point","coordinates":[49.8439933,40.38656790000002]},"properties":{"addr:housenumber":"81","addr:street":"Azadlıq prospekti","amenity":"bank","name:en":"NBC Bank","geotype":"Point","index":198},"id":"7124431585"},{"type":"Feature","geometry":{"type":"Point","coordinates":[49.847382599999996,40.38634350000001]},"properties":{"amenity":"restaurant","name":"abc","geotype":"Point","index":193},"id":"9994816595"},{"type":"Feature","geometry":{"type":"Point","coordinates":[49.84582760000001,40.38681510000001]},"properties":{"amenity":"restaurant","cuisine":"georgian","internet_access":"wlan","name:en":"Batumi Cafe","geotype":"Point","index":180},"id":"4423999392"},{"type":"Feature","geometry":{"type":"Point","coordinates":[49.8458421,40.3862618]},"properties":{"amenity":"restaurant","cuisine":"kebab","name:en":"Kabab House","geotype":"Point","index":179},"id":"4423999391"},{"type":"Feature","geometry":{"type":"Point","coordinates":[49.8465577,40.38769089999997]},"properties":{"amenity":"cafe","name:en":"WhatsApp kafe","geotype":"Point","index":178},"id":"10153393117"},{"type":"Feature","geometry":{"type":"Point","coordinates":[49.842684399999996,40.38917839999999]},"properties":{"addr:street":"Azadlıq prospekti","amenity":"cafe","name:en":"АРАЗ","name:ru":"АРАЗ","geotype":"Point","index":175},"id":"5110144321"},{"type":"Feature","geometry":{"type":"Point","coordinates":[49.8428394,40.38935520000001]},"properties":{"addr:street":"Azadlıq prospekti","amenity":"restaurant","name:en":"SIM-SIM","name:ru":"SIM-SIM","geotype":"Point","index":184},"id":"5110144223"},{"type":"Feature","geometry":{"type":"Point","coordinates":[49.8373288,40.385505800000004]},"properties":{"amenity":"restaurant","cuisine":"local;barbecue","name":"Restoran","geotype":"Point","index":188},"id":"6528373286"},{"type":"Feature","geometry":{"type":"Point","coordinates":[49.837767,40.3846815]},"properties":{"amenity":"cafe","name:en":"Yarpaq","geotype":"Point","index":177},"id":"5981612287"},{"type":"Feature","geometry":{"type":"Point","coordinates":[49.8354985,40.38565009999999]},"properties":{"amenity":"restaurant","name":"Qəbələ Xanlar restoranı","name:az":"Qəbələ Xanlar restoranı","geotype":"Point","index":128},"id":"6723774112"},{"type":"Feature","geometry":{"type":"Point","coordinates":[49.8375069,40.38499809999999]},"properties":{"amenity":"restaurant","cuisine":"local","name":"Yarpak","name:en":"Yarpak Restaurant","geotype":"Point","index":189},"id":"6528598986"},{"type":"Feature","geometry":{"type":"Point","coordinates":[49.8349208,40.3846509]},"properties":{"addr:city":"Bakı","addr:street":"Abay dongesi","amenity":"restaurant","cuisine":"barbecue;beef_bowl;burger;chicken;fine_dining;fish;friture","diet:vegetarian":"yes","name:en":"Lunch Chef Baku","name:ru":"Ланц Шеф Баку","name:tr":"Lunch Chef Bakü","opening_hours":"Mo-Sa 09:00-18:00","phone":"+994 12 480 11 68","geotype":"Point","index":104},"id":"4837607921"},{"type":"Feature","geometry":{"type":"Point","coordinates":[49.83496769999999,40.385250600000006]},"properties":{"amenity":"cafe","name:en":"Tea Cups","geotype":"Point","index":45},"id":"4423993596"},{"type":"Feature","geometry":{"type":"Point","coordinates":[49.83632359999999,40.384655899999984]},"properties":{"amenity":"cafe","geotype":"Point","index":40},"id":"2336972253"},{"type":"Feature","geometry":{"type":"Point","coordinates":[49.8374983,40.38490719999996]},"properties":{"amenity":"restaurant","cuisine":"local","name:en":"Yarpaq","geotype":"Point","index":190},"id":"6535662485"},{"type":"Feature","geometry":{"type":"Point","coordinates":[49.836548900000004,40.3857673]},"properties":{"amenity":"cafe","name":"Arrow Terrace","geotype":"Point","index":41},"id":"2336972259"},{"type":"Feature","geometry":{"type":"Point","coordinates":[49.84224150000001,40.389329299999986]},"properties":{"addr:street":"Azadlıq prospekti","amenity":"cafe","geotype":"Point","index":176},"id":"5110144423"},{"type":"Feature","geometry":{"type":"Point","coordinates":[49.83114629999999,40.3868128]},"properties":{"addr:housenumber":"98","addr:street":"Cəlil Məmmədquluzadə","amenity":"restaurant","internet_access":"wlan","name":"Дом","geotype":"Point","index":84},"id":"4143917289"},{"type":"Feature","geometry":{"type":"Point","coordinates":[49.8402244,40.388864600000005]},"properties":{"addr:postcode":"AZ1000","addr:street":"Nəcəf bəy Vəzirov","amenity":"cafe","cuisine":"tea;international","internet_access":"wlan","name:en":"East Lounge","name:fa":"East Lounge","name:ru":"East Lounge","name:tr":"East Lounge","opening_hours":"Mo-Su 12:00-00:00","operator":"Mr. Gafarli","phone":"+994556684866","website":"https://www.fb.com/eastloungebaku","geotype":"Point","index":174},"id":"4645815291"},{"type":"Feature","geometry":{"type":"Point","coordinates":[49.8420599,40.387822700000015]},"properties":{"addr:city":"Bakı","addr:street":"Süleyman Rüstəm küçəsi","amenity":"restaurant","name":"Илису, пиво, кафе","name:en":"İlisu kafe","geotype":"Point","index":181},"id":"4577151403"},{"type":"Feature","geometry":{"type":"Point","coordinates":[49.8410922,40.3869526]},"properties":{"amenity":"restaurant","name:en":"Qedim Qebele","geotype":"Point","index":196},"id":"10163140617"},{"type":"Feature","geometry":{"type":"Point","coordinates":[49.84137359999999,40.38647209999999]},"properties":{"amenity":"restaurant","name:en":"Qədim Qəbələ şəhərdə","geotype":"Point","index":195},"id":"10161855217"},{"type":"Feature","geometry":{"type":"Point","coordinates":[49.83405429999999,40.389776600000005]},"properties":{"amenity":"restaurant","name:en":"The circle music hall","geotype":"Point","index":114},"id":"5300552721"},{"type":"Feature","geometry":{"type":"Point","coordinates":[49.8386715,40.38994310000001]},"properties":{"amenity":"fast_food","cuisine":"kebab","name":"Shaurma №1","name:ru":"Шаурма №1","geotype":"Point","index":161},"id":"2034721613"},{"type":"Feature","geometry":{"type":"Point","coordinates":[49.8409944,40.39162279999999]},"properties":{"amenity":"cafe","geotype":"Point","index":63},"id":"5282105021"},{"type":"Feature","geometry":{"type":"Point","coordinates":[49.841188300000006,40.39163909999999]},"properties":{"addr:housenumber":"97","addr:street":"Azadlıq","amenity":"cafe","name":"Мугань","geotype":"Point","index":39},"id":"1873560690"},{"type":"Feature","geometry":{"type":"Point","coordinates":[49.837649,40.39093049999997]},"properties":{"addr:street":"Vaqif prospekti","amenity":"cafe","name:en":"millennium","geotype":"Point","index":54},"id":"4789388725"},{"type":"Feature","geometry":{"type":"Point","coordinates":[49.84029910000001,40.390684300000004]},"properties":{"addr:housenumber":"55","addr:street":"Süleyman Rüstəm","amenity":"bank","atm":"yes","name":"DemirBank","geotype":"Point","index":147},"id":"4630279608"},{"type":"Feature","geometry":{"type":"Point","coordinates":[49.8402859,40.391442299999994]},"properties":{"amenity":"cafe","cuisine":"regional","geotype":"Point","index":49},"id":"4577151402"},{"type":"Feature","geometry":{"type":"Point","coordinates":[49.8421866,40.39112750000001]},"properties":{"addr:city":"Bakı","addr:street":"Azadlıq prospekti","amenity":"bank","atm":"yes","drive_through":"no","name":"BTB Bank","geotype":"Point","index":160},"id":"9749732245"},{"type":"Feature","geometry":{"type":"Point","coordinates":[49.83007709999999,40.39004840000001]},"properties":{"addr:housenumber":"102A","addr:street":"Cəlil Məmmədquluzadə küçəsi","amenity":"bank","name:en":"AGBank","name:tr":"AGBank","opening_hours":"Mo-Fr 09:00-18:00","phone":"+994124975017","website":"https://www.agbank.az","geotype":"Point","index":149},"id":"4929197921"},{"type":"Feature","geometry":{"type":"Point","coordinates":[49.8302561044693,40.391657353867146]},"properties":{"index":202,"geotype":"Point","amenity":null,"internet_access":null,"name":null,"phone":null,"website":null}},{"type":"Feature","geometry":{"type":"Point","coordinates":[49.82700169108284,40.391869810765456]},"properties":{"index":201,"geotype":"Point","amenity":null,"internet_access":null,"name":null,"phone":null,"website":null}},{"type":"Feature","geometry":{"type":"Point","coordinates":[49.82874691530014,40.39372741850261]},"properties":{"index":200,"geotype":"Point","amenity":null,"internet_access":null,"name":null,"phone":null,"website":null}},{"type":"Feature","geometry":{"type":"Point","coordinates":[49.8294004,40.3883333]},"properties":{"amenity":"restaurant","cuisine":"georgian","internet_access":"wlan","name":"Baku-Tbilisi Restoranı","opening_hours":"Mo-Su 15:00-23:00","phone":"+994125965204","geotype":"Point","index":93},"id":"4517244991"},{"type":"Feature","geometry":{"type":"Point","coordinates":[49.8296361,40.3883879]},"properties":{"addr:street":"A. Nasibov, 5","amenity":"restaurant","name":"Flo Tu Dar Es Salam","geotype":"Point","index":85},"id":"4214350599"},{"type":"Feature","geometry":{"type":"Point","coordinates":[49.8297171,40.3871393]},"properties":{"addr:housenumber":"26","addr:street":"Abbasqulu ağa Bakıxanov pr.","amenity":"bank","name:en":"Yapi kredi baş ofis","name:tr":"YapıKredi Bank Azәrbaycan Baş Ofis","geotype":"Point","index":145},"id":"4579198291"},{"type":"Feature","geometry":{"type":"Point","coordinates":[49.82833921952987,40.390475209986846]},"properties":{"index":203,"geotype":"Point","amenity":null,"internet_access":null,"name":null,"phone":null,"website":null}},{"type":"Feature","geometry":{"type":"Point","coordinates":[49.82865393161775,40.39177720143064]},"properties":{"index":204,"geotype":"Point","amenity":null,"internet_access":null,"name":null,"phone":null,"website":null}},{"type":"Feature","geometry":{"type":"Point","coordinates":[49.83072102091683,40.393307963245206]},"properties":{"index":205,"geotype":"Point","amenity":null,"internet_access":null,"name":null,"phone":null,"website":null}},{"type":"Feature","geometry":{"type":"Point","coordinates":[49.8207352,40.39148030000001]},"properties":{"amenity":"fast_food","name":"Sweet Art depo","geotype":"Point","index":164},"id":"5845471585"},{"type":"Feature","geometry":{"type":"Point","coordinates":[49.8229688,40.38917609999996]},"properties":{"addr:housenumber":"5","addr:street":"İzmir küçəsi","amenity":"restaurant","name:en":"Ay Qonshu","geotype":"Point","index":116},"id":"5403801321"},{"type":"Feature","geometry":{"type":"Point","coordinates":[49.82318179999999,40.3881834]},"properties":{"amenity":"cafe","name":"Ləbləbi Şişa","geotype":"Point","index":75},"id":"10090512258"},{"type":"Feature","geometry":{"type":"Point","coordinates":[49.8242734,40.38787289999999]},"properties":{"amenity":"cafe","name":"McDonalds OFFİCE","geotype":"Point","index":76},"id":"10090512262"},{"type":"Feature","geometry":{"type":"Point","coordinates":[49.824307000000005,40.38769210000001]},"properties":{"amenity":"restaurant","name":"Mezzo Hyatt","geotype":"Point","index":137},"id":"10090512260"},{"type":"Feature","geometry":{"type":"Point","coordinates":[49.827570300000005,40.38420869999999]},"properties":{"addr:city":"Bakı","addr:street":"Bəsti Bağırova küç.","amenity":"restaurant","name":"Moko Rooms Restoranı","name:az":"Moko Rooms Restoranı","geotype":"Point","index":109},"id":"5079055319"},{"type":"Feature","geometry":{"type":"Point","coordinates":[49.82316360000001,40.3842358]},"properties":{"amenity":"restaurant","internet_access":"wlan","name":"Şah İnn","opening_hours":"24/7","phone":"+994555726308","geotype":"Point","index":123},"id":"6052936485"},{"type":"Feature","geometry":{"type":"Point","coordinates":[49.82792919999999,40.385032800000005]},"properties":{"addr:street":"Qicik qala","amenity":"restaurant","diet:vegan":"yes","name":"Manipura Ethic Cafe & Bar","geotype":"Point","index":120},"id":"5980758366"},{"type":"Feature","geometry":{"type":"Point","coordinates":[49.8220201,40.38534129999999]},"properties":{"amenity":"restaurant","name":"Qorodok","name:ru":"Городок","geotype":"Point","index":98},"id":"4580287293"},{"type":"Feature","geometry":{"type":"Point","coordinates":[49.82431700000001,40.38551270000002]},"properties":{"addr:city":"Bakı","addr:postcode":"AZ1065","addr:street":"İnşaatçılar prospekti","amenity":"bank","atm":"yes","name":"AFB Bank ASC, Həyat filialı","name:en":"AFB Bank, Hayat branche","name:ru":"АФБ Банк, филиал Хаят","opening_hours":"Mo-Fr 09:00-17:00","operator":"AFB Bank","geotype":"Point","index":142},"id":"1809770944"},{"type":"Feature","geometry":{"type":"Point","coordinates":[49.8221242,40.3855154]},"properties":{"amenity":"restaurant","name":"Pencere","name:en":"Pencere","geotype":"Point","index":99},"id":"4580331189"},{"type":"Feature","geometry":{"type":"Point","coordinates":[49.8157665,40.38559409999999]},"properties":{"amenity":"cafe","name":"Həmşəri Lahmacun","geotype":"Point","index":50},"id":"4580266993"},{"type":"Feature","geometry":{"type":"Point","coordinates":[49.8284496,40.38565030000001]},"properties":{"addr:city":"Bakı","addr:housenumber":"55","addr:street":"Cəfər Cabbarlı küçəsi","amenity":"bank","name":"Bank Respublika","geotype":"Point","index":159},"id":"9678406766"},{"type":"Feature","geometry":{"type":"Point","coordinates":[49.8156796,40.38599740000001]},"properties":{"amenity":"cafe","name":"Zorbulaq Kafe","geotype":"Point","index":73},"id":"9793511450"},{"type":"Feature","geometry":{"type":"Point","coordinates":[49.8149353,40.38640079999999]},"properties":{"amenity":"cafe","name":"Osmanlı Dönər Kafe","geotype":"Point","index":71},"id":"9791166891"},{"type":"Feature","geometry":{"type":"Point","coordinates":[49.82526020000001,40.38627020000001]},"properties":{"amenity":"restaurant","cuisine":"italian","name":"Scalini - Skalini","geotype":"Point","index":79},"id":"1482504063"},{"type":"Feature","geometry":{"type":"Point","coordinates":[49.8297231,40.38646700000001]},"properties":{"amenity":"restaurant","name:en":"Məhəllə","geotype":"Point","index":113},"id":"5276126721"},{"type":"Feature","geometry":{"type":"Point","coordinates":[49.8162094,40.386584700000014]},"properties":{"amenity":"cafe","name":"Qədir Xum Mərasim zalı","geotype":"Point","index":72},"id":"9793507887"},{"type":"Feature","geometry":{"type":"Point","coordinates":[49.8231965,40.38684220000002]},"properties":{"amenity":"restaurant","name":"İzmir Restoranı \\ Bakı","geotype":"Point","index":138},"id":"10090512269"},{"type":"Feature","geometry":{"type":"Point","coordinates":[49.8293393,40.38701209999999]},"properties":{"amenity":"bank","name":"Yapikredi bank","geotype":"Point","index":153},"id":"5779334011"},{"type":"Feature","geometry":{"type":"Point","coordinates":[49.8291906,40.38690220000001]},"properties":{"amenity":"restaurant","cuisine":"chinese","name":"Jasmin Çin Restoranı","geotype":"Point","index":82},"id":"3536037249"},{"type":"Feature","geometry":{"type":"Point","coordinates":[49.8453404,40.383958199999995]},"properties":{"amenity":"restaurant","cuisine":"seafood","name:en":"Krevetka","geotype":"Point","index":187},"id":"5981612487"},{"type":"Feature","geometry":{"type":"Point","coordinates":[49.848724,40.380840199999994]},"properties":{"amenity":"restaurant","geotype":"Point","index":118},"id":"5815639255"},{"type":"Feature","geometry":{"type":"Point","coordinates":[49.8452525,40.38105860000002]},"properties":{"amenity":"cafe","name:ar":"مطعم وكهوة شعبية اذرية","name:en":"Kafe obed","geotype":"Point","index":62},"id":"5275840521"},{"type":"Feature","geometry":{"type":"Point","coordinates":[49.845964,40.38218899999998]},"properties":{"addr:housenumber":"51","addr:street":"Azadlıq prospekti","amenity":"theatre","name":"Dovlət Pantomima Teatrı","name:en":"State Pantomime Theater","name:ru":"Государственный Театр Пантомимы","geotype":"Point","index":141},"id":"2094930973"},{"type":"Feature","geometry":{"type":"Point","coordinates":[49.8443227,40.381127599999985]},"properties":{"amenity":"bank","name:en":"Finex Group","geotype":"Point","index":154},"id":"5822602155"},{"type":"Feature","geometry":{"type":"Point","coordinates":[49.8448239,40.38121190000001]},"properties":{"amenity":"restaurant","name:en":"50 Qepik","name:tr":"50 qepik","geotype":"Point","index":102},"id":"4756765526"},{"type":"Feature","geometry":{"type":"Point","coordinates":[49.84966709999999,40.38354420000002]},"properties":{"amenity":"restaurant","internet_access":"wlan","name:en":"Kumiruli Zabegalovka","geotype":"Point","index":185},"id":"5354504621"},{"type":"Feature","geometry":{"type":"Point","coordinates":[49.8454304,40.3837144]},"properties":{"amenity":"restaurant","name:en":"Restaurant pub Megara","geotype":"Point","index":186},"id":"5981612486"},{"type":"Feature","geometry":{"type":"Point","coordinates":[49.845432,40.3837954]},"properties":{"amenity":"restaurant","name:en":"Kharabagh Tea","name:tr":"Karabağ Çay Klub","geotype":"Point","index":191},"id":"8210566017"},{"type":"Feature","geometry":{"type":"Point","coordinates":[49.844287,40.37977499999997]},"properties":{"amenity":"fast_food","name":"Lahmacun","name:ru":"Лахмаджун","geotype":"Point","index":162},"id":"2119762322"},{"type":"Feature","geometry":{"type":"Point","coordinates":[49.8471973,40.37896409999996]},"properties":{"amenity":"fast_food","brand":"McDonald's","brand:wikidata":"Q38076","cuisine":"burger","name":"McDonald's - 28 Mall","takeaway":"yes","geotype":"Point","index":165},"id":"6054228984"},{"type":"Feature","geometry":{"type":"Point","coordinates":[49.8469732,40.379437199999984]},"properties":{"amenity":"fast_food","brand":"Burger King","brand:wikidata":"Q177054","brand:wikipedia":"en:Burger King","cuisine":"burger","name":"Burger King","takeaway":"yes","geotype":"Point","index":166},"id":"6054241085"},{"type":"Feature","geometry":{"type":"Point","coordinates":[49.84669379999999,40.37911009999999]},"properties":{"amenity":"cafe","brand":"Gloria Jean's","brand:wikidata":"Q2666365","cuisine":"coffee_shop","name":"Gloria Jean's","official_name":"Gloria Jean's Coffees","takeaway":"yes","geotype":"Point","index":58},"id":"4973542921"},{"type":"Feature","geometry":{"type":"Point","coordinates":[49.846491,40.37912589999999]},"properties":{"addr:street":"Azadlıq pr.","amenity":"cafe","brand":"Starbucks","brand:wikidata":"Q37158","brand:wikipedia":"en:Starbucks","cuisine":"coffee_shop","internet_access":"wlan","name":"Starbucks","name:ru":"Старбакс Кофе","official_name":"Starbucks Coffee","takeaway":"yes","geotype":"Point","index":44},"id":"4352826894"},{"type":"Feature","geometry":{"type":"Point","coordinates":[49.84552,40.37983]},"properties":{"amenity":"cafe","name:en":"Pityhana","name:ru":"Питихана","geotype":"Point","index":51},"id":"4586562589"},{"type":"Feature","geometry":{"type":"Point","coordinates":[49.84940039999999,40.38000299999996]},"properties":{"alt_name":"Kentucky Fried Chicken","amenity":"fast_food","brand":"KFC","brand:wikidata":"Q524757","cuisine":"chicken","internet_access":"wlan","name":"KFC","opening_hours":"24/7","takeaway":"yes","geotype":"Point","index":163},"id":"5615860224"},{"type":"Feature","geometry":{"type":"Point","coordinates":[49.8453541,40.380795000000006]},"properties":{"amenity":"cafe","name:en":"Insta cafe","geotype":"Point","index":67},"id":"6296385399"},{"type":"Feature","geometry":{"type":"Point","coordinates":[49.8433945,40.381550000000004]},"properties":{"addr:city":"Bakı","addr:housenumber":"122F","addr:street":"Rəşid Behbudov küç.","amenity":"cafe","cuisine":"coffee;tea;cake;pasta;salad;chocolate","internet_access":"yes","internet_access:fee":"customers","name":"Fooda Baku","opening_hours":"Mo-Su 08:00-23:00","outdoor_seating":"no","phone":"+994553412171","website":"https://instagram.com/fooda_baku","geotype":"Point","index":78},"id":"10688471958"},{"type":"Feature","geometry":{"type":"Point","coordinates":[49.843202999999995,40.38204609999997]},"properties":{"addr:postcode":"AZ1014","addr:street":"Rəşid Behbudov küç.","amenity":"fast_food","cuisine":"pizza;regional;burger;kebab;turkish","name":"Sirius","geotype":"Point","index":168},"id":"10710217916"},{"type":"Feature","geometry":{"type":"Point","coordinates":[49.842374,40.38277579999999]},"properties":{"amenity":"bank","name:en":"Unibank Head Office","website":"https://www.unibank.az/","geotype":"Point","index":151},"id":"5216808723"},{"type":"Feature","geometry":{"type":"Point","coordinates":[49.8417824,40.38345910000001]},"properties":{"addr:city":"Bakı","addr:street":"Şövqiyar Abdullayev küçəsi","amenity":"restaurant","name":"Restoran 44 Club","name:az":"Restoran 44 Club","geotype":"Point","index":183},"id":"5078759783"},{"type":"Feature","geometry":{"type":"Point","coordinates":[49.8379239,40.38353340000003]},"properties":{"addr:housenumber":"107/109","addr:street":"Səməd Vurğun","amenity":"cafe","internet_access":"wlan","name:en":"Mood Cafe","phone":"+994125975058","geotype":"Point","index":173},"id":"4428659289"},{"type":"Feature","geometry":{"type":"Point","coordinates":[49.8389166,40.38336229999999]},"properties":{"amenity":"restaurant","name:en":"Görüş restoran","geotype":"Point","index":194},"id":"10087220919"},{"type":"Feature","geometry":{"type":"Point","coordinates":[49.8388162,40.383640000000014]},"properties":{"addr:city":"Bakı","addr:housenumber":"110","addr:postcode":"AZ1022","addr:street":"Səməd Vurğun küçəsi","amenity":"restaurant","contact:facebook":"mehlebaku","cuisine":"chicken;kebab","delivery":"yes","diet:meat":"yes","facebook":"https://www.facebook.com/mehlebaku","image":"https://scontent.fgyd4-4.fna.fbcdn.net/v/t1.0-9/102762069_111709700569798_4083837668780146688_n.png?_nc_cat=107&ccb=3&_nc_sid=09cbfe&_nc_ohc=mRVfDZXDHHEAX9d7ahp&_nc_ht=scontent.fgyd4-4.fna&oh=72c09e1b4153d215e371d91515b9cff2&oe=605396BE","name":"Mehle","name:en":"Mәhlә Kafe","opening_hours":"Mo-Fr 12:00-02:00","phone":"+994 50 808 00 90","ref:vatin":"1306126831","takeaway":"yes","website":"https://wolt.com/en/aze/baku/restaurant/mehle","geotype":"Point","index":192},"id":"8437632077"},{"type":"Feature","geometry":{"type":"Point","coordinates":[49.842834100000005,40.382516100000004]},"properties":{"amenity":"cafe","name:en":"Sahil","geotype":"Point","index":57},"id":"4973454821"},{"type":"Feature","geometry":{"type":"Point","coordinates":[49.8439083,40.3796859]},"properties":{"amenity":"restaurant","name:en":"Abqora","geotype":"Point","index":107},"id":"4949684728"},{"type":"Feature","geometry":{"type":"Point","coordinates":[49.8344016,40.3796974]},"properties":{"amenity":"cafe","name:en":"Quçək","geotype":"Point","index":68},"id":"7074333786"},{"type":"Feature","geometry":{"type":"Point","coordinates":[49.84151790000001,40.3800478]},"properties":{"amenity":"bank","name:en":"Muğanbank Nəsimi filialı","geotype":"Point","index":152},"id":"5530644322"},{"type":"Feature","geometry":{"type":"Point","coordinates":[49.8415906,40.38083169999999]},"properties":{"amenity":"restaurant","name":"Çınar kokoreç","geotype":"Point","index":130},"id":"7302473185"},{"type":"Feature","geometry":{"type":"Point","coordinates":[49.8416913,40.3805347]},"properties":{"addr:street":"Bülbül","amenity":"bank","name:en":"AzerTurkBank Mərkəz filialı","name:ru":"AzerTurkBank Mərkəz filialı","opening_hours":"Mo-Fr 09:00-18:00","geotype":"Point","index":144},"id":"4423359102"},{"type":"Feature","geometry":{"type":"Point","coordinates":[49.83311,40.381032000000005]},"properties":{"amenity":"bank","geotype":"Point","index":146},"id":"4586487589"},{"type":"Feature","geometry":{"type":"Point","coordinates":[49.841601,40.38111420000004]},"properties":{"addr:city":"Bakı","addr:housenumber":"60","addr:street":"Bülbül prospekti","amenity":"bank","name":"Kapital Bank (central branch)","opening_hours":"Mo-Fr 09:00-17:00","operator":"Kapial Bank","phone":"196","source_ref:url":"https://kapitalbank.az/locations/branch/baku/merkez-filiali-596","website":"https://kapitalbank.az/","wikidata":"Q6366720","wikipedia":"en:Kapital Bank","geotype":"Point","index":158},"id":"8428688893"},{"type":"Feature","geometry":{"type":"Point","coordinates":[49.84027,40.3811331]},"properties":{"addr:housenumber":"161","addr:street":"Salatın Əsgərova","amenity":"bank","atm":"yes","name":"NikOil Bank","opening_hours":"Mo-Fr 09:00-18:00","phone":"+994129812800","website":"https://nikoil.az/","geotype":"Point","index":148},"id":"4630318150"},{"type":"Feature","geometry":{"type":"Point","coordinates":[49.8317148,40.37921309999999]},"properties":{"amenity":"restaurant","name:en":"Qoçət","geotype":"Point","index":91},"id":"4425401090"},{"type":"Feature","geometry":{"type":"Point","coordinates":[49.83169079999999,40.379250600000006]},"properties":{"amenity":"restaurant","name":"Qoç Ət","name:en":"Qoç Ət","geotype":"Point","index":112},"id":"5201896831"},{"type":"Feature","geometry":{"type":"Point","coordinates":[49.8440469,40.37929209999999]},"properties":{"amenity":"restaurant","name:en":"Ramzes","geotype":"Point","index":105},"id":"4839694023"},{"type":"Feature","geometry":{"type":"Point","coordinates":[49.8337559,40.3794815]},"properties":{"amenity":"restaurant","name":"Sirvansah Muzey","geotype":"Point","index":86},"id":"4252255301"},{"type":"Feature","geometry":{"type":"Point","coordinates":[49.8338379,40.37960929999997]},"properties":{"amenity":"cafe","name":"Nar Restoran","name:en":"32 restoran","geotype":"Point","index":56},"id":"4949684727"},{"type":"Feature","geometry":{"type":"Point","coordinates":[49.84403450000001,40.37951229999999]},"properties":{"addr:housenumber":"25","addr:street":"Rəşid Behbudov küçəsi","amenity":"restaurant","name:en":"KababIstan","opening_hours":"Mo-Su 09:00-23:00","phone":"0125958407","geotype":"Point","index":103},"id":"4803011221"},{"type":"Feature","geometry":{"type":"Point","coordinates":[49.8418181,40.37963929999998]},"properties":{"addr:housenumber":"58c","addr:street":"Bülbül","amenity":"bank","name":"\"İNKİŞAF üçün MALİYYƏ\" MMC","geotype":"Point","index":143},"id":"4352241992"},{"type":"Feature","geometry":{"type":"Point","coordinates":[49.8427056,40.37965270000001]},"properties":{"addr:street":"Süleyman Rəhimov küçəsi","amenity":"cafe","cuisine":"tea","internet_access":"wlan","name":"Aksent","name:en":"Pi Art Cafe","name:tr":"Pi Art Kafe","opening_hours":"Mo-Su 09:00-00:00","phone":"+994514282839","website":"https://m.facebook.com/piartcafe/","geotype":"Point","index":59},"id":"5026723422"},{"type":"Feature","geometry":{"type":"Point","coordinates":[49.8235953,40.383427100000006]},"properties":{"amenity":"restaurant","name:en":"Meduza","name:ru":"Медуза","geotype":"Point","index":124},"id":"6089285886"},{"type":"Feature","geometry":{"type":"Point","coordinates":[49.8260207,40.38344839999999]},"properties":{"addr:housenumber":"15","addr:street":"Məhəmməd Naxçivani","amenity":"restaurant","name:en":"Xingal house","name:ru":"Хинкали хаус","phone":"+994513308386","geotype":"Point","index":96},"id":"4555582290"},{"type":"Feature","geometry":{"type":"Point","coordinates":[49.8221709,40.38391419999999]},"properties":{"addr:housenumber":"241","addr:street":"Abdulla Şaiq","amenity":"restaurant","cuisine":"russian;kebab;international;fish_and_chips;fish;coffee_shop;bavarian;barbecue","internet_access":"wlan","name":"Beer Hall","opening_hours":"Mo-Su 12:00-00:00","phone":"0125384727 0502273010","geotype":"Point","index":83},"id":"4102409595"},{"type":"Feature","geometry":{"type":"Point","coordinates":[49.8291198,40.384033199999976]},"properties":{"amenity":"cafe","name":"Əjdaha dönər. Caspian","geotype":"Point","index":65},"id":"5779334009"},{"type":"Feature","geometry":{"type":"Point","coordinates":[49.82371309999999,40.384172199999995]},"properties":{"addr:street":"İnşaatçılar pr.","amenity":"cafe","contact:email":"five@cafecity.az","contact:facebook":"https://www.facebook.com/kafesiti/","contact:instagram":"https://www.instagram.com/cafecitybaku/","contact:phone":"+994 12 436 78 25;+994 50 436 78 25","contact:website":"https://cafecity.az/restaurant/cafecity-five","cuisine":"mediterranean;diner;russian;pasta;oriental;beef_bowl;international","internet_access":"wlan","name":"CafeCity Five","opening_hours":"Mo-Th,Su 09:00-00:00; Fr-Sa 09:00-02:00","geotype":"Point","index":42},"id":"3536036361"},{"type":"Feature","geometry":{"type":"Point","coordinates":[49.8159326,40.38385119999998]},"properties":{"addr:street":"Akademik Şəfaət Mehdiyev","amenity":"restaurant","cuisine":"kebab","name":"\"Qabirga\" kebab evi","name:ru":"Шашлычная \"Габырга\"","opening_hours":"Mo-Su 09:00-00:00","phone":"+994702154142","website":"https://m.facebook.com/qabirgakebab/","geotype":"Point","index":111},"id":"5136633523"},{"type":"Feature","geometry":{"type":"Point","coordinates":[49.8145194,40.38382469999999]},"properties":{"amenity":"cafe","name:en":"Chaykovskiy","geotype":"Point","index":48},"id":"4563082389"},{"type":"Feature","geometry":{"type":"Point","coordinates":[49.8231236,40.38416910000001]},"properties":{"amenity":"restaurant","name":"Mado Restoran","geotype":"Point","index":94},"id":"4535844613"},{"type":"Feature","geometry":{"type":"Point","coordinates":[49.8199084,40.38249769999999]},"properties":{"amenity":"cafe","name:en":"Cafe 503","geotype":"Point","index":53},"id":"4682084593"},{"type":"Feature","geometry":{"type":"Point","coordinates":[49.82573789999999,40.3833329]},"properties":{"addr:city":"Bakı","addr:housenumber":"15","addr:postcode":"az1001","addr:street":"Məhəmməd Naxçıvani;Məhəmməd Naxçıvani küç.","amenity":"restaurant","cuisine":"beer;tost;cheese;meat","diet:halal":"yes","name":"Shakesbeer Pub & Restaurant","opening_hours":"Mo-Su 10:00-22:00","website":"https://shakesbeer.az","geotype":"Point","index":80},"id":"2134527318"},{"type":"Feature","geometry":{"type":"Point","coordinates":[49.8259563,40.38318450000003]},"properties":{"addr:street":"Murtuza Muxtarov","amenity":"restaurant","internet_access":"wlan","name:en":"40 Dərəcə","name:ru":"40 Dərəcə","geotype":"Point","index":101},"id":"4623181689"},{"type":"Feature","geometry":{"type":"Point","coordinates":[49.82642390000001,40.38314780000002]},"properties":{"amenity":"restaurant","name":"Medalyon Restoranı","geotype":"Point","index":81},"id":"3536035874"},{"type":"Feature","geometry":{"type":"Point","coordinates":[49.826347299999995,40.38313729999999]},"properties":{"addr:housenumber":"14","addr:street":"Məhəmməd Naxçıvani küç.","amenity":"restaurant","cuisine":"oriental","internet_access":"wlan","name:en":"Nuxa Milli Rastoran","opening_hours":"Mo-Su 09:00-00:00","phone":"+994504006611","geotype":"Point","index":119},"id":"5857244685"},{"type":"Feature","geometry":{"type":"Point","coordinates":[49.8250459,40.382667399999974]},"properties":{"addr:city":"Bakı","addr:housenumber":"202","addr:postcode":"AZ1007","addr:street":"Mustafa Sübhi","amenity":"restaurant","cuisine":"sushi;japanese","name":"SB Sushi Bar","opening_hours":"Mo-Su 12:00-23:00","opening_hours:covid19":"open","phone":"+994556363235","website":"https://baku.sbsushibar.com/","geotype":"Point","index":132},"id":"8373625348"},{"type":"Feature","geometry":{"type":"Point","coordinates":[49.82961089999999,40.38265419999999]},"properties":{"amenity":"bank","backrest":"yes","name":"Yapı Kredi Bank","geotype":"Point","index":156},"id":"6409127295"},{"type":"Feature","geometry":{"type":"Point","coordinates":[49.8262027,40.38339979999998]},"properties":{"addr:housenumber":"15","addr:street":"Məhəmməd Naxçıvani küç.","amenity":"restaurant","cuisine":"italian_pizza","name:en":"Pit Stop","opening_hours":"Mo-Su 10:00-22:30","geotype":"Point","index":117},"id":"5659140521"},{"type":"Feature","geometry":{"type":"Point","coordinates":[49.831583499999994,40.379540399999996]},"properties":{"amenity":"restaurant","name:en":"Mixək","geotype":"Point","index":92},"id":"4425427789"},{"type":"Feature","geometry":{"type":"Point","coordinates":[49.8308166,40.38163750000001]},"properties":{"amenity":"restaurant","name:en":"Səbzi","geotype":"Point","index":90},"id":"4425354896"},{"type":"Feature","geometry":{"type":"Point","coordinates":[49.820864099999994,40.37966119999999]},"properties":{"addr:housenumber":"11","addr:postcode":"1065","addr:street":"Əbdürrəhim bəy Haqverdiyev küç.","amenity":"restaurant","internet_access":"wlan","name":"TostWay","opening_hours":"Mo-Su 09:00-22:00","phone":"+994773699963","website":"https://instagram.com/tostway","geotype":"Point","index":129},"id":"7232139685"},{"type":"Feature","geometry":{"type":"Point","coordinates":[49.8163515,40.380226600000015]},"properties":{"amenity":"cafe","name":"Çayxor Kafe","geotype":"Point","index":74},"id":"9793519032"},{"type":"Feature","geometry":{"type":"Point","coordinates":[49.81532779999999,40.38072909999997]},"properties":{"amenity":"cafe","name":"Sobraniye","geotype":"Point","index":43},"id":"3678139451"},{"type":"Feature","geometry":{"type":"Point","coordinates":[49.8154154,40.38095809999999]},"properties":{"amenity":"restaurant","name":"Qaymaq Kafe","geotype":"Point","index":134},"id":"9793519029"},{"type":"Feature","geometry":{"type":"Point","coordinates":[49.821321000000005,40.381286200000005]},"properties":{"addr:street":"İnşaatçılar pr.","amenity":"restaurant","geotype":"Point","index":95},"id":"4536321293"},{"type":"Feature","geometry":{"type":"Point","coordinates":[49.8307251,40.381800999999996]},"properties":{"amenity":"cafe","name:en":"Elşen","geotype":"Point","index":46},"id":"4425427290"}]}